TRANSPORTER-16 OBJECT A
1 68416U 26067A   26104.12963830  .00004204  00000+0  20619-3 0  9991
2 68416  97.4492  63.5723 0003897 114.6467 245.5173 15.18652635  2229
